NORAD_CAT_ID,OBJECT_NAME,OBJECT_TYPE,EPOCH,MEAN_MOTION,ECCENTRICITY,INCLINATION,RA_OF_ASC_NODE,ARG_OF_PERICENTER,MEAN_ANOMALY,BSTAR,MEAN_MOTION_DOT,MEAN_MOTION_DDOT,TLE_LINE0,TLE_LINE1,TLE_LINE2,SEMIMAJOR_AXIS,PERIOD,APOGEE,PERIGEE,DECAYED
55291.0,STARLINK-5327,PAYLOAD,2024-04-06 10:15:14,14.98332417,0.0002642,70.0007,355.2481,269.1807,90.905,2.9461e-06,-5.8e-07,0.0,0 STARLINK-5327,1 55291U 23010Y   24097.42724622 -.00000058  00000-0  29461-5 0  9990,2 55291  70.0007 355.2481 0002642 269.1807  90.9050 14.98332417 67764,6950.185,96.107,573.887,570.214,0.0
55291.0,STARLINK-5327,PAYLOAD,2024-04-06 23:04:18,14.98325512,0.0002883,70.0003,353.9006,272.6043,87.4786,-6.2921e-06,-1.68e-06,0.0,0 STARLINK-5327,1 55291U 23010Y   24097.96133007 -.00000168  00000-0 -62921-5 0  9991,2 55291  70.0003 353.9006 0002883 272.6043  87.4786 14.98325512 68155,6950.207,96.107,574.076,570.068,0.0
55291.0,STARLINK-5327,PAYLOAD,2024-04-07 03:52:43,14.98325691,0.000266,70.0005,353.3962,267.2963,92.7892,-3.7296e-06,-1.37e-06,0.0,0 STARLINK-5327,1 55291U 23010Y   24098.16161048 -.00000137  00000-0 -37296-5 0  9993,2 55291  70.0005 353.3962 0002660 267.2963  92.7892 14.98325691 68184,6950.206,96.107,573.92,570.222,0.0
55291.0,STARLINK-5327,PAYLOAD,2024-04-07 21:30:11,14.98331849,0.0002644,70.0005,351.5446,270.42,89.6657,-0.00011195,-1.428e-05,0.0,0 STARLINK-5327,1 55291U 23010Y   24098.89596974 -.00001428  00000-0 -11195-3 0  9995,2 55291  70.0005 351.5446 0002644 270.4200  89.6657 14.98331849 68291,6950.187,96.107,573.89,570.215,0.0
55291.0,STARLINK-5327,PAYLOAD,2024-04-08 10:19:16,14.98329071,0.0002234,70.0013,350.1975,276.334,83.7565,6.4904e-06,-1.5e-07,0.0,0 STARLINK-5327,1 55291U 23010Y   24099.43004957 -.00000015  00000-0  64904-5 0  9999,2 55291  70.0013 350.1975 0002234 276.3340  83.7565 14.98329071 68069,6950.196,96.107,573.613,570.508,0.0
55291.0,STARLINK-5327,PAYLOAD,2024-04-08 23:08:20,14.98329846,0.0002626,70.0004,348.8498,269.4979,90.588,0.00013682,1.54e-05,0.0,0 STARLINK-5327,1 55291U 23010Y   24099.96412241  .00001540  00000-0  13682-3 0  9994,2 55291  70.0004 348.8498 0002626 269.4979  90.5880 14.98329846 68458,6950.193,96.107,573.883,570.233,0.0
55291.0,STARLINK-5327,PAYLOAD,2024-04-09 02:20:36,14.9835785,0.0002973,70.0,348.5144,269.0781,91.0037,-0.00037748,-4.597e-05,0.0,0 STARLINK-5327,1 55291U 23010Y   24100.09764021 -.00004597  00000-0 -37748-3 0  9993,2 55291  70.0000 348.5144 0002973 269.0781  91.0037 14.98357850 68165,6950.107,96.105,574.038,569.906,0.0
55291.0,STARLINK-5327,PAYLOAD,2024-04-09 10:21:17,14.98324318,0.0002673,70.0005,347.6727,276.9116,83.1739,9.3405e-05,1.022e-05,0.0,0 STARLINK-5327,1 55291U 23010Y   24100.43144823  .00001022  00000-0  93405-4 0  9994,2 55291  70.0005 347.6727 0002673 276.9116  83.1739 14.98324318 68213,6950.21,96.107,573.933,570.218,0.0
55291.0,STARLINK-5327,PAYLOAD,2024-04-09 23:10:21,14.98336549,0.0002647,70.0011,346.3257,266.0046,94.0811,-9.1556e-05,-1.185e-05,0.0,0 STARLINK-5327,1 55291U 23010Y   24100.96552554 -.00001185  00000-0 -91556-4 0  9993,2 55291  70.0011 346.3257 0002647 266.0046  94.0811 14.98336549 68601,6950.173,96.107,573.877,570.198,0.0
55291.0,STARLINK-5327,PAYLOAD,2024-04-10 02:22:37,14.98330376,0.0002772,70.0006,345.989,271.2877,88.7964,3.8605e-06,-4.7e-07,0.0,0 STARLINK-5327,1 55291U 23010Y   24101.09904614 -.00000047  00000-0  38605-5 0  9998,2 55291  70.0006 345.9890 0002772 271.2877  88.7964 14.98330376 68625,6950.192,96.107,573.983,570.13,0.0
55291.0,STARLINK-5327,PAYLOAD,2024-04-10 21:36:14,14.98327147,0.0002879,70.0002,343.9691,270.4644,89.6185,2.6287e-05,2.21e-06,0.0,0 STARLINK-5327,1 55291U 23010Y   24101.90016713  .00000221  00000-0  26287-4 0  9997,2 55291  70.0002 343.9691 0002879 270.4644  89.6185 14.98327147 68435,6950.202,96.107,574.068,570.066,0.0
55291.0,STARLINK-5327,PAYLOAD,2024-04-11 08:49:10,14.98330649,0.0002842,70.0001,342.791,270.9521,89.1313,-8.6409e-06,-1.96e-06,0.0,0 STARLINK-5327,1 55291U 23010Y   24102.36748524 -.00000196  00000-0 -86409-5 0  9996,2 55291  70.0001 342.7910 0002842 270.9521  89.1313 14.98330649 68815,6950.191,96.107,574.031,570.081,0.0
55291.0,STARLINK-5327,PAYLOAD,2024-04-11 20:02:06,14.98332014,0.0002916,69.9998,341.6127,268.9593,91.1232,2.6816e-05,2.27e-06,0.0,0 STARLINK-5327,1 55291U 23010Y   24102.83480272  .00000227  00000-0  26816-4 0  9999,2 55291  69.9998 341.6127 0002916 268.9593  91.1232 14.98332014 68881,6950.187,96.107,574.078,570.025,0.0
55291.0,STARLINK-5327,PAYLOAD,2024-04-12 02:26:38,14.98334237,0.0002884,69.9999,340.9396,268.3016,91.7812,4.8873e-05,4.9e-06,0.0,0 STARLINK-5327,1 55291U 23010Y   24103.10184013  .00000490  00000-0  48873-4 0  9993,2 55291  69.9999 340.9396 0002884 268.3016  91.7812 14.98334237 68610,6950.18,96.107,574.049,570.04,0.0
55291.0,STARLINK-5327,PAYLOAD,2024-04-12 21:40:16,14.98329757,0.0002902,69.9997,338.9196,269.8324,90.2503,5.9418e-06,-2.2e-07,0.0,0 STARLINK-5327,1 55291U 23010Y   24103.90296329 -.00000022  00000-0  59418-5 0  9995,2 55291  69.9997 338.9196 0002902 269.8324  90.2503 14.98329757 69042,6950.194,96.107,574.076,570.042,0.0
55291.0,STARLINK-5327,PAYLOAD,2024-04-13 00:52:32,14.98330617,0.000289,69.9997,338.583,269.5341,90.5487,1.492e-05,8.5e-07,0.0,0 STARLINK-5327,1 55291U 23010Y   24104.03648241  .00000085  00000-0  14920-4 0  9990,2 55291  69.9997 338.5830 0002890 269.5341  90.5487 14.98330617 68753,6950.191,96.107,574.065,570.047,0.0
55291.0,STARLINK-5327,PAYLOAD,2024-04-13 21:42:16,14.98331382,0.0002686,70.0005,336.3959,252.5748,107.5118,-1.7513e-05,-3.02e-06,0.0,0 STARLINK-5327,1 55291U 23010Y   24104.90436150 -.00000302  00000-0 -17513-4 0  9995,2 55291  70.0005 336.3959 0002686 252.5748 107.5118 14.98331382 69199,6950.189,96.107,573.92,570.187,0.0
55291.0,STARLINK-5327,PAYLOAD,2024-04-14 00:54:32,14.98331773,0.0002855,69.9999,336.0578,265.9369,94.1464,-2.2402e-05,-3.6e-06,0.0,0 STARLINK-5327,1 55291U 23010Y   24105.03788174 -.00000360  00000-0 -22402-4 0  9993,2 55291  69.9999 336.0578 0002855 265.9369  94.1464 14.98331773 68904,6950.187,96.107,574.037,570.068,0.0
55291.0,STARLINK-5327,PAYLOAD,2024-04-14 21:44:17,14.98328492,0.0002874,69.9998,333.869,266.0926,93.9904,-6.4642e-06,-1.7e-06,0.0,0 STARLINK-5327,1 55291U 23010Y   24105.90576323 -.00000170  00000-0 -64642-5 0  9992,2 55291  69.9998 333.8690 0002874 266.0926  93.9904 14.98328492 69344,6950.198,96.107,574.06,570.065,0.0
55291.0,STARLINK-5327,PAYLOAD,2024-04-15 00:56:34,14.9832915,0.00029,69.9998,333.5324,267.6508,92.4319,8.4921e-07,-8.3e-07,0.0,0 STARLINK-5327,1 55291U 23010Y   24106.03928279 -.00000083  00000-0  84921-6 0  9993,2 55291  69.9998 333.5324 0002900 267.6508  92.4319 14.98329150 69052,6950.196,96.107,574.076,570.045,0.0
55291.0,STARLINK-5327,PAYLOAD,2024-04-15 21:46:18,14.98329389,0.0002949,69.9996,331.3444,268.3667,91.7154,8.2685e-06,6e-08,0.0,0 STARLINK-5327,1 55291U 23010Y   24106.90716294  .00000006  00000-0  82685-5 0  9999,2 55291  69.9996 331.3444 0002949 268.3667  91.7154 14.98329389 69497,6950.195,96.107,574.109,570.01,0.0
55291.0,STARLINK-5327,PAYLOAD,2024-04-16 00:58:34,14.98331941,0.0002903,69.9998,331.0078,267.8973,92.1853,4.0168e-05,3.86e-06,0.0,0 STARLINK-5327,1 55291U 23010Y   24107.04068047  .00000386  00000-0  40168-4 0  9991,2 55291  69.9998 331.0078 0002903 267.8973  92.1853 14.98331941 69200,6950.187,96.107,574.07,570.034,0.0
55291.0,STARLINK-5327,PAYLOAD,2024-04-16 21:48:19,14.98334825,0.0002932,69.9996,328.8189,269.6739,90.4084,7.8982e-05,8.5e-06,0.0,0 STARLINK-5327,1 55291U 23010Y   24107.90855630  .00000850  00000-0  78982-4 0  9999,2 55291  69.9996 328.8189 0002932 269.6739  90.4084 14.98334825 69646,6950.178,96.107,574.081,570.005,0.0
55291.0,STARLINK-5327,PAYLOAD,2024-04-17 01:00:34,14.98352703,0.0002352,69.9996,328.4823,260.3657,99.7236,-4.4325e-05,-6.22e-06,0.0,0 STARLINK-5327,1 55291U 23010Y   24108.04206667 -.00000622  00000-0 -44325-4 0  9998,2 55291  69.9996 328.4823 0002352 260.3657  99.7236 14.98352703 69354,6950.123,96.106,573.622,570.353,0.0
55291.0,STARLINK-5327,PAYLOAD,2024-04-17 20:14:13,14.98320858,0.000289,69.9996,326.4627,264.8456,95.2373,-0.0001098,-1.403e-05,0.0,0 STARLINK-5327,1 55291U 23010Y   24108.84321032 -.00001403  00000-0 -10980-3 0  9997,2 55291  69.9996 326.4627 0002890 264.8456  95.2373 14.98320858 69479,6950.221,96.108,574.095,570.078,0.0
55291.0,STARLINK-5327,PAYLOAD,2024-04-17 21:50:21,14.98322192,0.0002858,69.9997,326.295,262.0635,98.0199,-0.00012818,-1.622e-05,0.0,0 STARLINK-5327,1 55291U 23010Y   24108.90997026 -.00001622  00000-0 -12818-3 0  9991,2 55291  69.9997 326.2950 0002858 262.0635  98.0199 14.98322192 69795,6950.217,96.107,574.068,570.096,0.0
55291.0,STARLINK-5327,PAYLOAD,2024-04-18 01:02:37,14.98323195,0.0002959,69.9993,325.9579,267.1707,92.9114,-0.00010925,-1.396e-05,0.0,0 STARLINK-5327,1 55291U 23010Y   24109.04348995 -.00001396  00000-0 -10925-3 0  9997,2 55291  69.9993 325.9579 0002959 267.1707  92.9114 14.98323195 69819,6950.214,96.107,574.136,570.022,0.0
55291.0,STARLINK-5327,PAYLOAD,2024-04-18 20:16:13,14.98335598,0.0003166,69.999,323.9379,272.0066,88.073,3.4472e-05,3.18e-06,0.0,0 STARLINK-5327,1 55291U 23010Y   24109.84459843  .00000318  00000-0  34472-4 0  9995,2 55291  69.9990 323.9379 0003166 272.0066  88.0730 14.98335598 69625,6950.176,96.107,574.241,569.84,0.0
55291.0,STARLINK-5327,PAYLOAD,2024-04-18 21:52:21,14.98338778,0.0003068,69.999,323.7698,269.5957,90.4851,5.5569e-05,5.7e-06,0.0,0 STARLINK-5327,1 55291U 23010Y   24109.91135554  .00000570  00000-0  55569-4 0  9993,2 55291  69.9990 323.7698 0003068 269.5957  90.4851 14.98338778 69947,6950.166,96.106,574.163,569.898,0.0
55291.0,STARLINK-5327,PAYLOAD,2024-04-19 13:53:42,14.98326293,0.0002961,69.999,322.0857,269.0603,91.0217,0.0001561,1.77e-05,0.0,0 STARLINK-5327,1 55291U 23010Y   24110.57895911  .00001770  00000-0  15610-3 0  9992,2 55291  69.9990 322.0857 0002961 269.0603  91.0217 14.98326293 70045,6950.204,96.107,574.127,570.011,0.0
